[{"OBJECT_NAME":"STARLINK-30036","OBJECT_ID":"2023-067E","EPOCH":"2026-03-09T22:27:38.465568","MEAN_MOTION":15.0253487,"ECCENTRICITY":0.00012628,"INCLINATION":43.002,"RA_OF_ASC_NODE":273.4179,"ARG_OF_PERICENTER":253.9368,"MEAN_ANOMALY":106.1335,"EPHEMERIS_TYPE":0,"CLASSIFICATION_TYPE":"U","NORAD_CAT_ID":56692,"ELEMENT_SET_NO":999,"REV_AT_EPOCH":15456,"BSTAR":1.4313037e-5,"MEAN_MOTION_DOT":-1.0e-7,"MEAN_MOTION_DDOT":0},{"OBJECT_NAME":"OBJECT D","OBJECT_ID":"2018-099D","EPOCH":"2026-03-09T21:55:11.400096","MEAN_MOTION":15.0608919,"ECCENTRICITY":0.00104801,"INCLINATION":97.4323,"RA_OF_ASC_NODE":113.3477,"ARG_OF_PERICENTER":333.2621,"MEAN_ANOMALY":26.8065,"EPHEMERIS_TYPE":0,"CLASSIFICATION_TYPE":"U","NORAD_CAT_ID":43761,"ELEMENT_SET_NO":999,"REV_AT_EPOCH":39716,"BSTAR":0.0002280609,"MEAN_MOTION_DOT":3.276e-5,"MEAN_MOTION_DDOT":0}]
